{"type": "FeatureCollection", "features": [{"type": "Feature", "properties": {"norad_id": 26766, "name": "INTELSAT 10 (IS-10)", "group": "intelsat", "lat": 8.633953476313001, "lon": 151.09751889953117, "alt_km": 36145.599366739996, "timestamp": "2025-12-10T18:56:59.729348+00:00", "meta": {"OBJECT_NAME": "INTELSAT 10 (IS-10)", "OBJECT_ID": "2001-019A", "EPOCH": "2025-12-10T09:00:59.361984", "MEAN_MOTION": 0.99078972, "ECCENTRICITY": 0.0007813, "INCLINATION": 8.6245, "RA_OF_ASC_NODE": 61.1809, "ARG_OF_PERICENTER": 223.4667, "MEAN_ANOMALY": 78.8791, "EPHEMERIS_TYPE": 0, "CLASSIFICATION_TYPE": "U", "NORAD_CAT_ID": 26766, "ELEMENT_SET_NO": 999, "REV_AT_EPOCH": 4370, "BSTAR": 0, "MEAN_MOTION_DOT": -2.87e-06, "MEAN_MOTION_DDOT": 0}, "tle": {"line1": "1 26766U 01019A   25344.37568706 -.00000287  00000+0  00000+0 0  9994", "line2": "2 26766   8.6245  61.1809 0007813 223.4667  78.8791  0.99078972 43703"}}, "geometry": {"type": "Point", "coordinates": [151.09751889953117, 8.633953476313001]}}, {"type": "Feature", "properties": {"norad_id": 26900, "name": "INTELSAT 902 (IS-902)", "group": "intelsat", "lat": -4.883405455571564, "lon": -46.27387468698148, "alt_km": 35780.19921432333, "timestamp": "2025-12-10T18:56:59.729371+00:00", "meta": {"OBJECT_NAME": "INTELSAT 902 (IS-902)", "OBJECT_ID": "2001-039A", "EPOCH": "2025-12-01T16:59:59.311968", "MEAN_MOTION": 1.00270327, "ECCENTRICITY": 0.00043097, "INCLINATION": 5.6187, "RA_OF_ASC_NODE": 74.2002, "ARG_OF_PERICENTER": 175.119, "MEAN_ANOMALY": 26.3816, "EPHEMERIS_TYPE": 0, "CLASSIFICATION_TYPE": "U", "NORAD_CAT_ID": 26900, "ELEMENT_SET_NO": 999, "REV_AT_EPOCH": 8871, "BSTAR": 0, "MEAN_MOTION_DOT": -2.63e-06, "MEAN_MOTION_DDOT": 0}, "tle": {"line1": "1 26900U 01039A   25335.70832537 -.00000263  00000+0  00000+0 0  9993", "line2": "2 26900   5.6187  74.2002 0004309 175.1190  26.3816  1.00270327 88713"}}, "geometry": {"type": "Point", "coordinates": [-46.27387468698148, -4.883405455571564]}}, {"type": "Feature", "properties": {"norad_id": 27380, "name": "INTELSAT 904 (IS-904)", "group": "intelsat", "lat": -6.378511790947071, "lon": -27.542903977586235, "alt_km": 35782.19687693855, "timestamp": "2025-12-10T18:56:59.729388+00:00", "meta": {"OBJECT_NAME": "INTELSAT 904 (IS-904)", "OBJECT_ID": "2002-007A", "EPOCH": "2025-12-09T11:42:40.881024", "MEAN_MOTION": 1.00273083, "ECCENTRICITY": 0.0001514, "INCLINATION": 6.4469, "RA_OF_ASC_NODE": 71.4685, "ARG_OF_PERICENTER": 215.3872, "MEAN_ANOMALY": 295.774, "EPHEMERIS_TYPE": 0, "CLASSIFICATION_TYPE": "U", "NORAD_CAT_ID": 27380, "ELEMENT_SET_NO": 999, "REV_AT_EPOCH": 4986, "BSTAR": 0, "MEAN_MOTION_DOT": -2.24e-06, "MEAN_MOTION_DDOT": 0}, "tle": {"line1": "1 27380U 02007A   25343.48797316 -.00000224  00000+0  00000+0 0  9998", "line2": "2 27380   6.4469  71.4685 0001514 215.3872 295.7740  1.00273083 49866"}}, "geometry": {"type": "Point", "coordinates": [-27.542903977586235, -6.378511790947071]}}, {"type": "Feature", "properties": {"norad_id": 27426, "name": "DIRECTV 5 (TEMPO 1)", "group": "intelsat", "lat": 0.2720640252728718, "lon": -106.10989427549949, "alt_km": 35771.10994778869, "timestamp": "2025-12-10T18:56:59.729401+00:00", "meta": {"OBJECT_NAME": "DIRECTV 5 (TEMPO 1)", "OBJECT_ID": "2002-023A", "EPOCH": "2025-12-10T08:42:38.903328", "MEAN_MOTION": 1.00272223, "ECCENTRICITY": 0.0003896, "INCLINATION": 4.3964, "RA_OF_ASC_NODE": 77.68, "ARG_OF_PERICENTER": 202.3151, "MEAN_ANOMALY": 179.8931, "EPHEMERIS_TYPE": 0, "CLASSIFICATION_TYPE": "U", "NORAD_CAT_ID": 27426, "ELEMENT_SET_NO": 999, "REV_AT_EPOCH": 8623, "BSTAR": 0, "MEAN_MOTION_DOT": -5.4e-07, "MEAN_MOTION_DDOT": 0}, "tle": {"line1": "1 27426U 02023A   25344.36295027 -.00000054  00000+0  00000+0 0  9998", "line2": "2 27426   4.3964  77.6800 0003896 202.3151 179.8931  1.00272223 86233"}}, "geometry": {"type": "Point", "coordinates": [-106.10989427549949, 0.2720640252728718]}}, {"type": "Feature", "properties": {"norad_id": 27438, "name": "INTELSAT 905 (IS-905)", "group": "intelsat", "lat": 2.6643752850622398, "lon": -133.07792923398065, "alt_km": 35776.320471873034, "timestamp": "2025-12-10T18:56:59.729413+00:00", "meta": {"OBJECT_NAME": "INTELSAT 905 (IS-905)", "OBJECT_ID": "2002-027A", "EPOCH": "2025-12-10T10:38:24.492192", "MEAN_MOTION": 1.00272307, "ECCENTRICITY": 0.0002799, "INCLINATION": 6.2803, "RA_OF_ASC_NODE": 72.0821, "ARG_OF_PERICENTER": 193.4676, "MEAN_ANOMALY": 196.2661, "EPHEMERIS_TYPE": 0, "CLASSIFICATION_TYPE": "U", "NORAD_CAT_ID": 27438, "ELEMENT_SET_NO": 999, "REV_AT_EPOCH": 4947, "BSTAR": 0, "MEAN_MOTION_DOT": 9.7e-07, "MEAN_MOTION_DDOT": 0}, "tle": {"line1": "1 27438U 02027A   25344.44333903  .00000097  00000+0  00000+0 0  9996", "line2": "2 27438   6.2803  72.0821 0002799 193.4676 196.2661  1.00272307 49475"}}, "geometry": {"type": "Point", "coordinates": [-133.07792923398065, 2.6643752850622398]}}, {"type": "Feature", "properties": {"norad_id": 27445, "name": "GALAXY 3C (G-3C)", "group": "intelsat", "lat": -0.5077887380714707, "lon": -90.85601867556788, "alt_km": 35786.632593303184, "timestamp": "2025-12-10T18:56:59.729424+00:00", "meta": {"OBJECT_NAME": "GALAXY 3C (G-3C)", "OBJECT_ID": "2002-030A", "EPOCH": "2025-12-10T09:03:44.735904", "MEAN_MOTION": 1.00271037, "ECCENTRICITY": 0.0001103, "INCLINATION": 3.2587, "RA_OF_ASC_NODE": 80.5284, "ARG_OF_PERICENTER": 95.4264, "MEAN_ANOMALY": 304.4719, "EPHEMERIS_TYPE": 0, "CLASSIFICATION_TYPE": "U", "NORAD_CAT_ID": 27445, "ELEMENT_SET_NO": 999, "REV_AT_EPOCH": 4460, "BSTAR": 0, "MEAN_MOTION_DOT": -1.49e-06, "MEAN_MOTION_DDOT": 0}, "tle": {"line1": "1 27445U 02030A   25344.37760111 -.00000149  00000+0  00000+0 0  9994", "line2": "2 27445   3.2587  80.5284 0001103  95.4264 304.4719  1.00271037 44604"}}, "geometry": {"type": "Point", "coordinates": [-90.85601867556788, -0.5077887380714707]}}, {"type": "Feature", "properties": {"norad_id": 27513, "name": "INTELSAT 906 (IS-906)", "group": "intelsat", "lat": -0.638276584455713, "lon": 68.19231379972626, "alt_km": 35811.03324984535, "timestamp": "2025-12-10T18:56:59.729436+00:00", "meta": {"OBJECT_NAME": "INTELSAT 906 (IS-906)", "OBJECT_ID": "2002-041A", "EPOCH": "2025-12-09T20:43:37.286400", "MEAN_MOTION": 1.00271049, "ECCENTRICITY": 0.00061202, "INCLINATION": 5.3215, "RA_OF_ASC_NODE": 75.2657, "ARG_OF_PERICENTER": 190.4585, "MEAN_ANOMALY": 188.1629, "EPHEMERIS_TYPE": 0, "CLASSIFICATION_TYPE": "U", "NORAD_CAT_ID": 27513, "ELEMENT_SET_NO": 999, "REV_AT_EPOCH": 8513, "BSTAR": 0, "MEAN_MOTION_DOT": 1.5e-07, "MEAN_MOTION_DDOT": 0}, "tle": {"line1": "1 27513U 02041A   25343.86362600  .00000015  00000+0  00000+0 0  9997", "line2": "2 27513   5.3215  75.2657 0006120 190.4585 188.1629  1.00271049 85135"}}, "geometry": {"type": "Point", "coordinates": [68.19231379972626, -0.638276584455713]}}, {"type": "Feature", "properties": {"norad_id": 27954, "name": "GALAXY 13 (HORIZONS-1)", "group": "intelsat", "lat": 0.7229680002666161, "lon": -146.00431507200474, "alt_km": 35779.41327853882, "timestamp": "2025-12-10T18:56:59.729448+00:00", "meta": {"OBJECT_NAME": "GALAXY 13 (HORIZONS-1)", "OBJECT_ID": "2003-044A", "EPOCH": "2025-12-10T11:00:23.834880", "MEAN_MOTION": 1.00270524, "ECCENTRICITY": 0.0002029, "INCLINATION": 0.9296, "RA_OF_ASC_NODE": 86.5003, "ARG_OF_PERICENTER": 164.0767, "MEAN_ANOMALY": 203.9566, "EPHEMERIS_TYPE": 0, "CLASSIFICATION_TYPE": "U", "NORAD_CAT_ID": 27954, "ELEMENT_SET_NO": 999, "REV_AT_EPOCH": 4468, "BSTAR": 0, "MEAN_MOTION_DOT": 1.37e-06, "MEAN_MOTION_DDOT": 0}, "tle": {"line1": "1 27954U 03044A   25344.45860920  .00000137  00000+0  00000+0 0  9999", "line2": "2 27954   0.9296  86.5003 0002029 164.0767 203.9566  1.00270524 44685"}}, "geometry": {"type": "Point", "coordinates": [-146.00431507200474, 0.7229680002666161]}}, {"type": "Feature", "properties": {"norad_id": 28358, "name": "INTELSAT 10-02", "group": "intelsat", "lat": -0.016903831445738367, "lon": 3.117465440677439, "alt_km": 35785.7552960419, "timestamp": "2025-12-10T18:56:59.729459+00:00", "meta": {"OBJECT_NAME": "INTELSAT 10-02", "OBJECT_ID": "2004-022A", "EPOCH": "2025-12-09T23:46:38.709984", "MEAN_MOTION": 1.00289796, "ECCENTRICITY": 0.00023988, "INCLINATION": 0.028, "RA_OF_ASC_NODE": 69.1558, "ARG_OF_PERICENTER": 175.9009, "MEAN_ANOMALY": 189.6126, "EPHEMERIS_TYPE": 0, "CLASSIFICATION_TYPE": "U", "NORAD_CAT_ID": 28358, "ELEMENT_SET_NO": 999, "REV_AT_EPOCH": 7865, "BSTAR": 0, "MEAN_MOTION_DOT": -4e-08, "MEAN_MOTION_DDOT": 0}, "tle": {"line1": "1 28358U 04022A   25343.99072581 -.00000004  00000+0  00000+0 0  9995", "line2": "2 28358   0.0280  69.1558 0002398 175.9009 189.6126  1.00289796 78656"}}, "geometry": {"type": "Point", "coordinates": [3.117465440677439, -0.016903831445738367]}}, {"type": "Feature", "properties": {"norad_id": 28626, "name": "XM-3 (RHYTHM)", "group": "intelsat", "lat": 0.1326874905908831, "lon": 127.59978907341026, "alt_km": 36164.44159259702, "timestamp": "2025-12-10T18:56:59.729471+00:00", "meta": {"OBJECT_NAME": "XM-3 (RHYTHM)", "OBJECT_ID": "2005-008A", "EPOCH": "2025-12-10T05:30:38.805120", "MEAN_MOTION": 0.9895347, "ECCENTRICITY": 0.0001418, "INCLINATION": 0.1684, "RA_OF_ASC_NODE": 81.2752, "ARG_OF_PERICENTER": 266.0581, "MEAN_ANOMALY": 300.7784, "EPHEMERIS_TYPE": 0, "CLASSIFICATION_TYPE": "U", "NORAD_CAT_ID": 28626, "ELEMENT_SET_NO": 999, "REV_AT_EPOCH": 4072, "BSTAR": 0, "MEAN_MOTION_DOT": -2.23e-06, "MEAN_MOTION_DDOT": 0}, "tle": {"line1": "1 28626U 05008A   25344.22961580 -.00000223  00000+0  00000+0 0  9994", "line2": "2 28626   0.1684  81.2752 0001418 266.0581 300.7784  0.98953470 40729"}}, "geometry": {"type": "Point", "coordinates": [127.59978907341026, 0.1326874905908831]}}]}